STARLINK-1376
1 45570U 20025AR  26090.39371847  .00055019  00000+0  17548-2 0  9995
2 45570  53.1607 336.8843 0001587 168.0141 192.0899 15.32006650328821
